start=new Date('2022-05-21T00:00:00.000Z').valueOf();
sats=[{"OBJECT_NAME":"STARLINK-2608","TLE_LINE2":"2 48365  53.0547 113.3133 0002436  46.3718 313.7473 15.06402621 58290","TLE_LINE1":"1 48365U 21038N   22140.41820803  .00001281  00000-0  10492-3 0  9996","OBJECT_TYPE":"PAYLOAD","COUNTRY_CODE":"US","GP_ID":"204007764","NORAD_CAT_ID":"48365","OBJECT_ID":"2021-038N","SEMIMAJOR_AXIS":"6925.341","REV_AT_EPOCH":"5829","MEAN_ELEMENT_THEORY":"SGP4","APOAPSIS":"548.893","EPHEMERIS_TYPE":"0","CLASSIFICATION_TYPE":"U","LAUNCH_DATE":"2021-05-04","RA_OF_ASC_NODE":"113.3133","RCS_SIZE":"LARGE","TIME_SYSTEM":"UTC","MEAN_MOTION_DDOT":"0.0000000000000","ECCENTRICITY":"0.00024360","MEAN_ANOMALY":"313.7473","PERIAPSIS":"545.519","MEAN_MOTION_DOT":"0.00001281","BSTAR":"0.00010492000000","MEAN_MOTION":"15.06402621","EPOCH":"2022-05-20T10:02:13.173792","ARG_OF_PERICENTER":"46.3718","CENTER_NAME":"EARTH","FILE":"3454578","REF_FRAME":"TEME","INCLINATION":"53.0547","ELEMENT_SET_NO":"999","PERIOD":"95.592","SITE":"AFETR","DECAY_DATE":null},{"ECCENTRICITY":"0.00020340","TIME_SYSTEM":"UTC","MEAN_MOTION_DDOT":"0.0000000000000","RCS_SIZE":"LARGE","CLASSIFICATION_TYPE":"U","LAUNCH_DATE":"2021-05-04","RA_OF_ASC_NODE":"109.2539","EPHEMERIS_TYPE":"0","MEAN_ELEMENT_THEORY":"SGP4","APOAPSIS":"548.638","REV_AT_EPOCH":"5773","SEMIMAJOR_AXIS":"6925.364","OBJECT_TYPE":"PAYLOAD","COUNTRY_CODE":"US","OBJECT_ID":"2021-038P","GP_ID":"204040065","NORAD_CAT_ID":"48366","TLE_LINE2":"2 48366  53.0561 109.2539 0002034  55.2441 304.8739 15.06394830 57733","TLE_LINE1":"1 48366U 21038P   22140.20673305 -.00000541  00000-0 -17421-4 0  9997","OBJECT_NAME":"STARLINK-2631","DECAY_DATE":null,"PERIOD":"95.592","SITE":"AFETR","ELEMENT_SET_NO":"999","FILE":"3455160","INCLINATION":"53.0561","REF_FRAME":"TEME","CENTER_NAME":"EARTH","ARG_OF_PERICENTER":"55.2441","EPOCH":"2022-05-20T04:57:41.735520","MEAN_MOTION":"15.06394830","BSTAR":"-0.00001742100000","PERIAPSIS":"545.821","MEAN_MOTION_DOT":"-0.00000541","MEAN_ANOMALY":"304.8739"},{"RCS_SIZE":"LARGE","EPHEMERIS_TYPE":"0","LAUNCH_DATE":"2021-05-04","CLASSIFICATION_TYPE":"U","RA_OF_ASC_NODE":"108.6832","ECCENTRICITY":"0.00020480","MEAN_MOTION_DDOT":"0.0000000000000","TIME_SYSTEM":"UTC","TLE_LINE2":"2 48367  53.0563 108.6832 0002048  56.7893 303.3292 15.06397149 57753","TLE_LINE1":"1 48367U 21038Q   22140.33573587  .00000411  00000-0  46529-4 0  9998","OBJECT_NAME":"STARLINK-2643","MEAN_ELEMENT_THEORY":"SGP4","APOAPSIS":"548.641","COUNTRY_CODE":"US","OBJECT_TYPE":"PAYLOAD","GP_ID":"204040817","OBJECT_ID":"2021-038Q","NORAD_CAT_ID":"48367","SEMIMAJOR_AXIS":"6925.357","REV_AT_EPOCH":"5775","ELEMENT_SET_NO":"999","CENTER_NAME":"EARTH","ARG_OF_PERICENTER":"56.7893","FILE":"3455160","INCLINATION":"53.0563","REF_FRAME":"TEME","PERIOD":"95.592","SITE":"AFETR","DECAY_DATE":null,"BSTAR":"0.00004652900000","MEAN_ANOMALY":"303.3292","PERIAPSIS":"545.804","MEAN_MOTION_DOT":"0.00000411","EPOCH":"2022-05-20T08:03:27.579168","MEAN_MOTION":"15.06397149"},{"OBJECT_NAME":"STARLINK-2623","TLE_LINE1":"1 48368U 21038R   22140.41956797  .00000573  00000-0  57395-4 0  9998","TLE_LINE2":"2 48368  53.0557 108.2889 0002080  49.4518 310.6652 15.06397122 57778","NORAD_CAT_ID":"48368","GP_ID":"204041542","OBJECT_ID":"2021-038R","COUNTRY_CODE":"US","OBJECT_TYPE":"PAYLOAD","REV_AT_EPOCH":"5777","SEMIMAJOR_AXIS":"6925.357","APOAPSIS":"548.663","MEAN_ELEMENT_THEORY":"SGP4","EPHEMERIS_TYPE":"0","RA_OF_ASC_NODE":"108.2889","CLASSIFICATION_TYPE":"U","LAUNCH_DATE":"2021-05-04","RCS_SIZE":"LARGE","MEAN_MOTION_DDOT":"0.0000000000000","TIME_SYSTEM":"UTC","ECCENTRICITY":"0.00020800","MEAN_ANOMALY":"310.6652","MEAN_MOTION_DOT":"0.00000573","PERIAPSIS":"545.782","BSTAR":"0.00005739500000","MEAN_MOTION":"15.06397122","EPOCH":"2022-05-20T10:04:10.672608","CENTER_NAME":"EARTH","ARG_OF_PERICENTER":"49.4518","REF_FRAME":"TEME","INCLINATION":"53.0557","FILE":"3455160","ELEMENT_SET_NO":"999","SITE":"AFETR","PERIOD":"95.592","DECAY_DATE":null},{"OBJECT_NAME":"STARLINK-2641","TLE_LINE2":"2 48369  53.0570 107.4980 0002416  53.0332 307.0878 15.06370562 58382","TLE_LINE1":"1 48369U 21038S   22140.59744625  .00005763  00000-0  40580-3 0  9996","OBJECT_TYPE":"PAYLOAD","COUNTRY_CODE":"US","GP_ID":"204048496","OBJECT_ID":"2021-038S","NORAD_CAT_ID":"48369","REV_AT_EPOCH":"5838","SEMIMAJOR_AXIS":"6925.439","MEAN_ELEMENT_THEORY":"SGP4","APOAPSIS":"548.977","EPHEMERIS_TYPE":"0","LAUNCH_DATE":"2021-05-04","CLASSIFICATION_TYPE":"U","RA_OF_ASC_NODE":"107.4980","RCS_SIZE":"LARGE","TIME_SYSTEM":"UTC","MEAN_MOTION_DDOT":"0.0000000000000","ECCENTRICITY":"0.00024160","MEAN_ANOMALY":"307.0878","PERIAPSIS":"545.631","MEAN_MOTION_DOT":"0.00005763","BSTAR":"0.00040580000000","MEAN_MOTION":"15.06370562","EPOCH":"2022-05-20T14:20:19.356000","ARG_OF_PERICENTER":"53.0332","CENTER_NAME":"EARTH","FILE":"3455436","REF_FRAME":"TEME","INCLINATION":"53.0570","ELEMENT_SET_NO":"999","PERIOD":"95.594","SITE":"AFETR","DECAY_DATE":null},{"BSTAR":"0.00006723400000","MEAN_ANOMALY":"315.5399","PERIAPSIS":"545.718","MEAN_MOTION_DOT":"0.00000720","EPOCH":"2022-05-20T07:52:50.400768","MEAN_MOTION":"15.06400410","ELEMENT_SET_NO":"999","ARG_OF_PERICENTER":"44.5764","CENTER_NAME":"EARTH","FILE":"3455160","INCLINATION":"53.0562","REF_FRAME":"TEME","PERIOD":"95.592","SITE":"AFETR","DECAY_DATE":null,"TLE_LINE2":"2 48370  53.0562 108.7083 0002158  44.5764 315.5399 15.06400410 57758","TLE_LINE1":"1 48370U 21038T   22140.32836112  .00000720  00000-0  67234-4 0  9996","OBJECT_NAME":"STARLINK-2621","MEAN_ELEMENT_THEORY":"SGP4","APOAPSIS":"548.707","OBJECT_TYPE":"PAYLOAD","COUNTRY_CODE":"US","GP_ID":"204040565","OBJECT_ID":"2021-038T","NORAD_CAT_ID":"48370","SEMIMAJOR_AXIS":"6925.347","REV_AT_EPOCH":"5775","RCS_SIZE":"LARGE","EPHEMERIS_TYPE":"0","CLASSIFICATION_TYPE":"U","LAUNCH_DATE":"2021-05-04","RA_OF_ASC_NODE":"108.7083","ECCENTRICITY":"0.00021580","TIME_SYSTEM":"UTC","MEAN_MOTION_DDOT":"0.0000000000000"},{"ARG_OF_PERICENTER":"50.7019","CENTER_NAME":"EARTH","REF_FRAME":"TEME","INCLINATION":"53.0547","FILE":"3455160","ELEMENT_SET_NO":"999","SITE":"AFETR","PERIOD":"95.593","DECAY_DATE":null,"MEAN_ANOMALY":"309.4151","MEAN_MOTION_DOT":"-0.00000296","PERIAPSIS":"545.825","BSTAR":"-0.00000094267000","MEAN_MOTION":"15.06392000","EPOCH":"2022-05-20T07:47:32.712288","EPHEMERIS_TYPE":"0","RA_OF_ASC_NODE":"108.7326","LAUNCH_DATE":"2021-05-04","CLASSIFICATION_TYPE":"U","RCS_SIZE":"LARGE","TIME_SYSTEM":"UTC","MEAN_MOTION_DDOT":"0.0000000000000","ECCENTRICITY":"0.00020410","OBJECT_NAME":"STARLINK-2589","TLE_LINE1":"1 48371U 21038U   22140.32468417 -.00000296  00000-0 -94267-6 0  9994","TLE_LINE2":"2 48371  53.0547 108.7326 0002041  50.7019 309.4151 15.06392000 57758","NORAD_CAT_ID":"48371","GP_ID":"204041316","OBJECT_ID":"2021-038U","COUNTRY_CODE":"US","OBJECT_TYPE":"PAYLOAD","SEMIMAJOR_AXIS":"6925.373","REV_AT_EPOCH":"5775","APOAPSIS":"548.652","MEAN_ELEMENT_THEORY":"SGP4"},{"OBJECT_NAME":"STARLINK-2572","TLE_LINE2":"2 48372  53.0542 108.4498 0002455  47.2938 312.8257 15.06385882 57767","TLE_LINE1":"1 48372U 21038V   22140.38735338  .00017218  00000-0  11724-2 0  9993","SEMIMAJOR_AXIS":"6925.392","REV_AT_EPOCH":"5776","OBJECT_TYPE":"PAYLOAD","COUNTRY_CODE":"US","OBJECT_ID":"2021-038V","GP_ID":"204041044","NORAD_CAT_ID":"48372","MEAN_ELEMENT_THEORY":"SGP4","APOAPSIS":"548.957","CLASSIFICATION_TYPE":"U","LAUNCH_DATE":"2021-05-04","RA_OF_ASC_NODE":"108.4498","EPHEMERIS_TYPE":"0","RCS_SIZE":"LARGE","TIME_SYSTEM":"UTC","MEAN_MOTION_DDOT":"0.0000000000000","ECCENTRICITY":"0.00024550","PERIAPSIS":"545.557","MEAN_MOTION_DOT":"0.00017218","MEAN_ANOMALY":"312.8257","BSTAR":"0.00117240000000","MEAN_MOTION":"15.06385882","EPOCH":"2022-05-20T09:17:47.332032","FILE":"3455160","REF_FRAME":"TEME","INCLINATION":"53.0542","ARG_OF_PERICENTER":"47.2938","CENTER_NAME":"EARTH","ELEMENT_SET_NO":"999","DECAY_DATE":null,"PERIOD":"95.593","SITE":"AFETR"},{"OBJECT_NAME":"STARLINK-2609","TLE_LINE2":"2 48373  53.0539 108.4633 0001712  61.3714 298.7447 15.06398967 57760","TLE_LINE1":"1 48373U 21038W   22140.38365138  .00001071  00000-0  90817-4 0  9993","REV_AT_EPOCH":"5776","SEMIMAJOR_AXIS":"6925.352","OBJECT_TYPE":"PAYLOAD","COUNTRY_CODE":"US","GP_ID":"204039816","NORAD_CAT_ID":"48373","OBJECT_ID":"2021-038W","MEAN_ELEMENT_THEORY":"SGP4","APOAPSIS":"548.402","LAUNCH_DATE":"2021-05-04","CLASSIFICATION_TYPE":"U","RA_OF_ASC_NODE":"108.4633","EPHEMERIS_TYPE":"0","RCS_SIZE":"LARGE","TIME_SYSTEM":"UTC","MEAN_MOTION_DDOT":"0.0000000000000","ECCENTRICITY":"0.00017120","PERIAPSIS":"546.031","MEAN_MOTION_DOT":"0.00001071","MEAN_ANOMALY":"298.7447","BSTAR":"0.00009081700000","MEAN_MOTION":"15.06398967","EPOCH":"2022-05-20T09:12:27.479232","FILE":"3455160","INCLINATION":"53.0539","REF_FRAME":"TEME","ARG_OF_PERICENTER":"61.3714","CENTER_NAME":"EARTH","ELEMENT_SET_NO":"999","DECAY_DATE":null,"PERIOD":"95.592","SITE":"AFETR"},{"MEAN_MOTION":"15.06396911","EPOCH":"2022-05-20T15:29:19.241376","MEAN_MOTION_DOT":"0.00001185","PERIAPSIS":"545.809","MEAN_ANOMALY":"305.7000","BSTAR":"0.00009844800000","DECAY_DATE":null,"SITE":"AFETR","PERIOD":"95.592","REF_FRAME":"TEME","INCLINATION":"53.0529","FILE":"3455441","ARG_OF_PERICENTER":"54.4179","CENTER_NAME":"EARTH","ELEMENT_SET_NO":"999","SEMIMAJOR_AXIS":"6925.358","REV_AT_EPOCH":"5839","GP_ID":"204048084","OBJECT_ID":"2021-038X","NORAD_CAT_ID":"48374","OBJECT_TYPE":"PAYLOAD","COUNTRY_CODE":"US","APOAPSIS":"548.637","MEAN_ELEMENT_THEORY":"SGP4","OBJECT_NAME":"STARLINK-2604","TLE_LINE1":"1 48374U 21038X   22140.64536159  .00001185  00000-0  98448-4 0  9990","TLE_LINE2":"2 48374  53.0529 107.2857 0002042  54.4179 305.7000 15.06396911 58391","MEAN_MOTION_DDOT":"0.0000000000000","TIME_SYSTEM":"UTC","ECCENTRICITY":"0.00020420","RA_OF_ASC_NODE":"107.2857","LAUNCH_DATE":"2021-05-04","CLASSIFICATION_TYPE":"U","EPHEMERIS_TYPE":"0","RCS_SIZE":"LARGE"}];
